ORBCOMM FM20            
1 25416U 98046D   24211.84047291  .00001335  00000+0  50848-3 0  9999
2 25416  44.9941 266.0520 0002108 263.6202  96.4405 14.35503450357917
ORBCOMM FM16            
1 25417U 98046E   24211.88039361  .00001825  00000+0  66276-3 0  9999
2 25417  44.9937 260.9948 0001834 151.9919 208.1027 14.36588440357868
ORBCOMM FM15            
1 25418U 98046F   24211.85290676  .00001786  00000+0  65349-3 0  9991
2 25418  44.9969 265.3804 0001747 163.7426 196.3478 14.36296890357864
ORBCOMM FM14            
1 25419U 98046G   24211.86708077  .00002063  00000+0  74441-3 0  9994
2 25419  44.9960 264.3060 0000712 213.2221 146.8582 14.36498201357826
ORBCOMM FM13            
1 25420U 98046H   24211.88550357  .00001637  00000+0  60993-3 0  9997
2 25420  44.9975 269.5647 0002242 112.4583 247.6502 14.35713578356886
ORBCOMM FM21            
1 25475U 98053A   24211.77164947  .00001955  00000+0  72047-3 0  9995
2 25475  45.0105 354.5464 0000869 182.0551 178.0293 14.35609346350881
ORBCOMM FM22            
1 25476U 98053B   24211.85704712  .00002251  00000+0  81268-3 0  9990
2 25476  45.0091 351.0802 0000789  69.0470 291.0462 14.36195530351251
ORBCOMM FM23            
1 25477U 98053C   24211.72758525  .00001786  00000+0  66174-3 0  9999
2 25477  45.0105 357.1512 0000519  97.2087 262.8819 14.35655095351024
